[
    {
        "Altitude(m)": 712937.3080383973,
        "Argument of Periapsis(deg)": 0.0011390121186627068,
        "Eccentricity": 0.0,
        "Inclination(deg)": 45.0,
        "Latitude(deg)": -33.10720958655664,
        "Longitude(deg)": -24.61580967208692,
        "Mean Anomaly(deg)": -129.75577833525188,
        "RAAN(deg)": 214.9989248058542,
        "Satellite Name": "Constellation 1 960",
        "Satellite Number": 960,
        "Semi-Major Axis(m)": 7083131.272910544,
        "Time(s)": 19
    },
    {
        "Altitude(m)": 712950.4051675919,
        "Argument of Periapsis(deg)": 0.0011989601249081123,
        "Eccentricity": 0.0,
        "Inclination(deg)": 45.0,
        "Latitude(deg)": -33.139928126826355,
        "Longitude(deg)": -24.559059444493744,
        "Mean Anomaly(deg)": -129.69507719500206,
        "RAAN(deg)": 214.9988682166886,
        "Satellite Name": "Constellation 1 960",
        "Satellite Number": 960,
        "Semi-Major Axis(m)": 7083131.272910544,
        "Time(s)": 20
    },
    {
        "Altitude(m)": 712963.4938337588,
        "Argument of Periapsis(deg)": 0.001258908131153518,
        "Eccentricity": 0.0,
        "Inclination(deg)": 45.0,
        "Latitude(deg)": -33.172616684754956,
        "Longitude(deg)": -24.502264206534417,
        "Mean Anomaly(deg)": -129.63437605475207,
        "RAAN(deg)": 214.99881162752305,
        "Satellite Name": "Constellation 1 960",
        "Satellite Number": 960,
        "Semi-Major Axis(m)": 7083131.272910544,
        "Time(s)": 21
    },
    {
        "Altitude(m)": 712976.5739902606,
        "Argument of Periapsis(deg)": 0.0013188561373989236,
        "Eccentricity": 0.0,
        "Inclination(deg)": 45.0,
        "Latitude(deg)": -33.20527520187266,
        "Longitude(deg)": -24.445424077913135,
        "Mean Anomaly(deg)": -129.5736749145022,
        "RAAN(deg)": 214.9987550383575,
        "Satellite Name": "Constellation 1 960",
        "Satellite Number": 960,
        "Semi-Major Axis(m)": 7083131.272910544,
        "Time(s)": 22
    },
    {
        "Altitude(m)": 712989.6455904751,
        "Argument of Periapsis(deg)": 0.0013788041436443293,
        "Eccentricity": 0.0,
        "Inclination(deg)": 45.0,
        "Latitude(deg)": -33.237903619639134,
        "Longitude(deg)": -24.388538674178307,
        "Mean Anomaly(deg)": -129.51297377425232,
        "RAAN(deg)": 214.9986984491919,
        "Satellite Name": "Constellation 1 960",
        "Satellite Number": 960,
        "Semi-Major Axis(m)": 7083131.272910544,
        "Time(s)": 23
    },
    {
        "Altitude(m)": 713002.7085878272,
        "Argument of Periapsis(deg)": 0.001438752149889735,
        "Eccentricity": 0.0,
        "Inclination(deg)": 45.0,
        "Latitude(deg)": -33.270501879444815,
        "Longitude(deg)": -24.331608115306665,
        "Mean Anomaly(deg)": -129.45227263400247,
        "RAAN(deg)": 214.99864186002634,
        "Satellite Name": "Constellation 1 960",
        "Satellite Number": 960,
        "Semi-Major Axis(m)": 7083131.272910544,
        "Time(s)": 24
    },
    {
        "Altitude(m)": 713015.7629357475,
        "Argument of Periapsis(deg)": 0.0014987001561351404,
        "Eccentricity": 0.0,
        "Inclination(deg)": 45.0,
        "Latitude(deg)": -33.30306992261037,
        "Longitude(deg)": -24.27463235331527,
        "Mean Anomaly(deg)": -129.3915714937525,
        "RAAN(deg)": 214.9985852708608,
        "Satellite Name": "Constellation 1 960",
        "Satellite Number": 960,
        "Semi-Major Axis(m)": 7083131.272910544,
        "Time(s)": 25
    },
    {
        "Altitude(m)": 713028.8085876997,
        "Argument of Periapsis(deg)": 0.001558648162380546,
        "Eccentricity": 0.0,
        "Inclination(deg)": 45.0,
        "Latitude(deg)": -33.335607690386475,
        "Longitude(deg)": -24.217611340360552,
        "Mean Anomaly(deg)": -129.3308703535026,
        "RAAN(deg)": 214.9985286816952,
        "Satellite Name": "Constellation 1 960",
        "Satellite Number": 960,
        "Semi-Major Axis(m)": 7083131.272910544,
        "Time(s)": 26
    },
    {
        "Altitude(m)": 713041.8454971652,
        "Argument of Periapsis(deg)": 0.0016185961686259519,
        "Eccentricity": 0.0,
        "Inclination(deg)": 45.0,
        "Latitude(deg)": -33.368115123954325,
        "Longitude(deg)": -24.160545028738426,
        "Mean Anomaly(deg)": -129.27016921325267,
        "RAAN(deg)": 214.99847209252965,
        "Satellite Name": "Constellation 1 960",
        "Satellite Number": 960,
        "Semi-Major Axis(m)": 7083131.272910544,
        "Time(s)": 27
    },
    {
        "Altitude(m)": 713054.8736176568,
        "Argument of Periapsis(deg)": 0.0016785441748713573,
        "Eccentricity": 0.0,
        "Inclination(deg)": 45.0,
        "Latitude(deg)": -33.40059216442558,
        "Longitude(deg)": -24.10343337088587,
        "Mean Anomaly(deg)": -129.20946807300282,
        "RAAN(deg)": 214.99841550336407,
        "Satellite Name": "Constellation 1 960",
        "Satellite Number": 960,
        "Semi-Major Axis(m)": 7083131.272910544,
        "Time(s)": 28
    },
    {
        "Altitude(m)": 713067.892902708,
        "Argument of Periapsis(deg)": 0.001738492181116763,
        "Eccentricity": 0.0,
        "Inclination(deg)": 45.0,
        "Latitude(deg)": -33.433038752842535,
        "Longitude(deg)": -24.046276319381523,
        "Mean Anomaly(deg)": -129.14876693275286,
        "RAAN(deg)": 214.9983589141985,
        "Satellite Name": "Constellation 1 960",
        "Satellite Number": 960,
        "Semi-Major Axis(m)": 7083131.272910544,
        "Time(s)": 29
    },
    {
        "Altitude(m)": 713080.9033058804,
        "Argument of Periapsis(deg)": 0.0017984401873621684,
        "Eccentricity": 0.0,
        "Inclination(deg)": 45.0,
        "Latitude(deg)": -33.4654548301781,
        "Longitude(deg)": -23.989073995044613,
        "Mean Anomaly(deg)": -129.08806579250302,
        "RAAN(deg)": 214.99830232503294,
        "Satellite Name": "Constellation 1 960",
        "Satellite Number": 960,
        "Semi-Major Axis(m)": 7083131.272910544,
        "Time(s)": 30
    },
    {
        "Altitude(m)": 713093.9047807611,
        "Argument of Periapsis(deg)": 0.0018583881936075745,
        "Eccentricity": 0.0,
        "Inclination(deg)": 45.0,
        "Latitude(deg)": -33.49784033733541,
        "Longitude(deg)": -23.931826014546417,
        "Mean Anomaly(deg)": -129.02736465225314,
        "RAAN(deg)": 214.99824573586736,
        "Satellite Name": "Constellation 1 960",
        "Satellite Number": 960,
        "Semi-Major Axis(m)": 7083131.272910544,
        "Time(s)": 31
    },
    {
        "Altitude(m)": 713106.8972809523,
        "Argument of Periapsis(deg)": 0.0019183361998529795,
        "Eccentricity": 0.0,
        "Inclination(deg)": 45.0,
        "Latitude(deg)": -33.53019521514917,
        "Longitude(deg)": -23.874532498994608,
        "Mean Anomaly(deg)": -128.96666351200324,
        "RAAN(deg)": 214.9981891467018,
        "Satellite Name": "Constellation 1 960",
        "Satellite Number": 960,
        "Semi-Major Axis(m)": 7083131.272910544,
        "Time(s)": 32
    },
    {
        "Altitude(m)": 713119.8807600974,
        "Argument of Periapsis(deg)": 0.0019782842060983856,
        "Eccentricity": 0.0,
        "Inclination(deg)": 45.0,
        "Latitude(deg)": -33.56251940438463,
        "Longitude(deg)": -23.81719340154599,
        "Mean Anomaly(deg)": -128.90596237175328,
        "RAAN(deg)": 214.99813255753622,
        "Satellite Name": "Constellation 1 960",
        "Satellite Number": 960,
        "Semi-Major Axis(m)": 7083131.272910544,
        "Time(s)": 33
    },
    {
        "Altitude(m)": 713132.8551718536,
        "Argument of Periapsis(deg)": 0.0020382322123437906,
        "Eccentricity": 0.0,
        "Inclination(deg)": 45.0,
        "Latitude(deg)": -33.59481284573811,
        "Longitude(deg)": -23.759808675504395,
        "Mean Anomaly(deg)": -128.84526123150334,
        "RAAN(deg)": 214.99807596837064,
        "Satellite Name": "Constellation 1 960",
        "Satellite Number": 960,
        "Semi-Major Axis(m)": 7083131.272910544,
        "Time(s)": 34
    },
    {
        "Altitude(m)": 713145.8204699116,
        "Argument of Periapsis(deg)": 0.002098180218589197,
        "Eccentricity": 0.0,
        "Inclination(deg)": 45.0,
        "Latitude(deg)": -33.62707547983688,
        "Longitude(deg)": -23.70237827432191,
        "Mean Anomaly(deg)": -128.78456009125352,
        "RAAN(deg)": 214.99801937920506,
        "Satellite Name": "Constellation 1 960",
        "Satellite Number": 960,
        "Semi-Major Axis(m)": 7083131.272910544,
        "Time(s)": 35
    },
    {
        "Altitude(m)": 713158.7766079876,
        "Argument of Periapsis(deg)": 0.002158128224834602,
        "Eccentricity": 0.0,
        "Inclination(deg)": 45.0,
        "Latitude(deg)": -33.65930724723956,
        "Longitude(deg)": -23.644902151599577,
        "Mean Anomaly(deg)": -128.72385895100362,
        "RAAN(deg)": 214.9979627900395,
        "Satellite Name": "Constellation 1 960",
        "Satellite Number": 960,
        "Semi-Major Axis(m)": 7083131.272910544,
        "Time(s)": 36
    },
    {
        "Altitude(m)": 713171.7235398238,
        "Argument of Periapsis(deg)": 0.002218076231080008,
        "Eccentricity": 0.0,
        "Inclination(deg)": 45.0,
        "Latitude(deg)": -33.6915080884364,
        "Longitude(deg)": -23.587380429185558,
        "Mean Anomaly(deg)": -128.6631578107537,
        "RAAN(deg)": 214.99790620087396,
        "Satellite Name": "Constellation 1 960",
        "Satellite Number": 960,
        "Semi-Major Axis(m)": 7083131.272910544,
        "Time(s)": 37
    }
]